FENGYUN 1C DEB          
1 30750U 99025ATL 17345.93200510  .00000942  00000-0  52967-3 0  9997
2 30750  99.0689 340.9678 0049532 117.1597 299.9181 14.12378270553972
